MALLIGYONG-1            
1 58400U 23179A   24019.14563646  .00007713  00000+0  33960-3 0  9991
2 58400  97.4245 268.1547 0017662  74.0682 286.2499 15.21977101  8903
